{
    "links": {
        "self": "http://www.neowsapp.com/rest/v1/neo/3402609?api_key=iIulBulltgU6a56xZRHN4H3l9WmuAYTsLGpBGhQ2"
    },
    "id": "3402609",
    "neo_reference_id": "3402609",
    "name": "(2008 CG116)",
    "designation": "2008 CG116",
    "nasa_jpl_url": "http://ssd.jpl.nasa.gov/sbdb.cgi?sstr=3402609",
    "absolute_magnitude_h": 24.2,
    "estimated_diameter": {
        "kilometers": {
            "estimated_diameter_min": 0.0384197891,
            "estimated_diameter_max": 0.0859092601
        },
        "meters": {
            "estimated_diameter_min": 38.4197891064,
            "estimated_diameter_max": 85.9092601232
        },
        "miles": {
            "estimated_diameter_min": 0.0238729428,
            "estimated_diameter_max": 0.0533815229
        },
        "feet": {
            "estimated_diameter_min": 126.0491808919,
            "estimated_diameter_max": 281.8545369825
        }
    },
    "is_potentially_hazardous_asteroid": false,
    "close_approach_data": [
        {
            "close_approach_date": "2008-02-08",
            "close_approach_date_full": "2008-Feb-08 12:35",
            "epoch_date_close_approach": 1202474100000,
            "relative_velocity": {
                "kilometers_per_second": "8.0266489891",
                "kilometers_per_hour": "28895.9363607381",
                "miles_per_hour": "17954.8111237042"
            },
            "miss_distance": {
                "astronomical": "0.0285680691",
                "lunar": "11.1129788799",
                "kilometers": "4273722.287372817",
                "miles": "2655567.8890541946"
            },
            "orbiting_body": "Earth"
        },
        {
            "close_approach_date": "2010-01-01",
            "close_approach_date_full": "2010-Jan-01 17:11",
            "epoch_date_close_approach": 1262365860000,
            "relative_velocity": {
                "kilometers_per_second": "4.6499299426",
                "kilometers_per_hour": "16739.7477935352",
                "miles_per_hour": "10401.4282887108"
            },
            "miss_distance": {
                "astronomical": "1.2887321258",
                "lunar": "501.3167969362",
                "kilometers": "192791581.020252046",
                "miles": "119795133.4718323948"
            },
            "orbiting_body": "Juptr"
        }
    ],
    "orbital_data": {
        "orbit_id": "6",
        "orbit_determination_date": "2017-04-06 09:04:23",
        "first_observation_date": "2008-02-08",
        "last_observation_date": "2008-02-12",
        "data_arc_in_days": 4,
        "observations_used": 60,
        "orbit_uncertainty": "7",
        "minimum_orbit_intersection": ".0473067",
        "jupiter_tisserand_invariant": "3.231",
        "epoch_osculation": "2459000.5",
        "eccentricity": ".5816253164325196",
        "semi_major_axis": "2.457310078550724",
        "inclination": "5.081155007675862",
        "ascending_node_longitude": "309.2967259204975",
        "orbital_period": "1406.98144381155",
        "perihelion_distance": "1.02807632654084",
        "perihelion_argument": "198.6875034907292",
        "aphelion_distance": "3.886543830560609",
        "perihelion_time": "2458732.203368069119",
        "mean_anomaly": "68.64823123285917",
        "mean_motion": ".255866913940777",
        "equinox": "J2000",
        "orbit_class": {
            "orbit_class_type": "AMO",
            "orbit_class_description": "Near-Earth asteroid orbits similar to that of 1221 Amor",
            "orbit_class_range": "1.017 AU < q (perihelion) < 1.3 AU"
        }
    },
    "is_sentry_object": false
}